start=new Date('2023-03-05T00:00:00.000Z').valueOf();
sats=[{"DECAY_DATE":null,"PERIOD":"95.438","EPHEMERIS_TYPE":"0","MEAN_ANOMALY":"261.3374","NORAD_CAT_ID":"50804","TLE_LINE1":"1 50804U 22001B   23063.71268936 -.00003990  00000-0 -23279-3 0  9997","PERIAPSIS":"538.833","MEAN_MOTION_DOT":"-0.00003990","BSTAR":"-0.00023279000000","ELEMENT_SET_NO":"999","MEAN_MOTION_DDOT":"0.0000000000000","OBJECT_ID":"2022-001B","OBJECT_TYPE":"PAYLOAD","TIME_SYSTEM":"UTC","CENTER_NAME":"EARTH","SEMIMAJOR_AXIS":"6917.900","REF_FRAME":"TEME","INCLINATION":"53.2152","CLASSIFICATION_TYPE":"U","REV_AT_EPOCH":"6433","TLE_LINE2":"2 50804  53.2152  61.5972 0001348  98.7771 261.3374 15.08833568 64331","MEAN_ELEMENT_THEORY":"SGP4","OBJECT_NAME":"STARLINK-3323","COUNTRY_CODE":"US","GP_ID":"227509374","EPOCH":"2023-03-04T17:06:16.360704","SITE":"AFETR","ECCENTRICITY":"0.00013480","LAUNCH_DATE":"2022-01-06","APOAPSIS":"540.698","RA_OF_ASC_NODE":"61.5972","ARG_OF_PERICENTER":"98.7771","RCS_SIZE":"LARGE","FILE":"3851350","MEAN_MOTION":"15.08833568"},{"RA_OF_ASC_NODE":"61.6129","MEAN_MOTION":"15.08823068","FILE":"3851350","ARG_OF_PERICENTER":"80.3001","RCS_SIZE":"LARGE","APOAPSIS":"540.415","LAUNCH_DATE":"2022-01-06","OBJECT_NAME":"STARLINK-3333","EPOCH":"2023-03-04T17:00:58.694688","SITE":"AFETR","ECCENTRICITY":"0.00008930","COUNTRY_CODE":"US","GP_ID":"227510126","CLASSIFICATION_TYPE":"U","TLE_LINE2":"2 50805  53.2149  61.6129 0000893  80.3001 279.8092 15.08823068 64335","REV_AT_EPOCH":"6433","INCLINATION":"53.2149","MEAN_ELEMENT_THEORY":"SGP4","TIME_SYSTEM":"UTC","OBJECT_TYPE":"PAYLOAD","REF_FRAME":"TEME","CENTER_NAME":"EARTH","SEMIMAJOR_AXIS":"6917.932","ELEMENT_SET_NO":"999","BSTAR":"-0.00059618000000","OBJECT_ID":"2022-001C","MEAN_MOTION_DDOT":"0.0000000000000","PERIAPSIS":"539.179","TLE_LINE1":"1 50805U 22001C   23063.70901267 -.00009759  00000-0 -59618-3 0  9993","NORAD_CAT_ID":"50805","MEAN_MOTION_DOT":"-0.00009759","MEAN_ANOMALY":"279.8092","EPHEMERIS_TYPE":"0","DECAY_DATE":null,"PERIOD":"95.439"},{"REF_FRAME":"TEME","SEMIMAJOR_AXIS":"6917.902","CENTER_NAME":"EARTH","TIME_SYSTEM":"UTC","OBJECT_TYPE":"PAYLOAD","OBJECT_ID":"2022-001D","MEAN_MOTION_DDOT":"0.0000000000000","ELEMENT_SET_NO":"999","BSTAR":"-0.00030928000000","MEAN_MOTION_DOT":"-0.00005206","TLE_LINE1":"1 50806U 22001D   23063.70533613 -.00005206  00000-0 -30928-3 0  9996","PERIAPSIS":"538.183","NORAD_CAT_ID":"50806","MEAN_ANOMALY":"280.0614","PERIOD":"95.438","DECAY_DATE":null,"EPHEMERIS_TYPE":"0","FILE":"3851350","MEAN_MOTION":"15.08832968","RCS_SIZE":"LARGE","ARG_OF_PERICENTER":"80.0637","RA_OF_ASC_NODE":"61.6335","APOAPSIS":"541.350","LAUNCH_DATE":"2022-01-06","ECCENTRICITY":"0.00022890","SITE":"AFETR","EPOCH":"2023-03-04T16:55:41.041632","GP_ID":"227509864","COUNTRY_CODE":"US","OBJECT_NAME":"STARLINK-3335","MEAN_ELEMENT_THEORY":"SGP4","REV_AT_EPOCH":"6433","TLE_LINE2":"2 50806  53.2171  61.6335 0002289  80.0637 280.0614 15.08832968 64336","CLASSIFICATION_TYPE":"U","INCLINATION":"53.2171"},{"MEAN_ANOMALY":"280.3748","DECAY_DATE":null,"EPHEMERIS_TYPE":"0","PERIOD":"95.437","MEAN_MOTION_DOT":"-0.00000361","TLE_LINE1":"1 50807U 22001E   23063.69061343 -.00000361  00000-0 -45989-5 0  9993","PERIAPSIS":"538.779","NORAD_CAT_ID":"50807","OBJECT_ID":"2022-001E","MEAN_MOTION_DDOT":"0.0000000000000","ELEMENT_SET_NO":"999","BSTAR":"-0.00000459890000","REF_FRAME":"TEME","SEMIMAJOR_AXIS":"6917.852","CENTER_NAME":"EARTH","TIME_SYSTEM":"UTC","OBJECT_TYPE":"PAYLOAD","MEAN_ELEMENT_THEORY":"SGP4","REV_AT_EPOCH":"6433","TLE_LINE2":"2 50807  53.2168  61.6955 0001355  79.7396 280.3748 15.08849451 64337","CLASSIFICATION_TYPE":"U","INCLINATION":"53.2168","ECCENTRICITY":"0.00013550","SITE":"AFETR","EPOCH":"2023-03-04T16:34:29.000352","GP_ID":"227508627","COUNTRY_CODE":"US","OBJECT_NAME":"STARLINK-3353","APOAPSIS":"540.654","LAUNCH_DATE":"2022-01-06","FILE":"3851350","MEAN_MOTION":"15.08849451","RCS_SIZE":"LARGE","ARG_OF_PERICENTER":"79.7396","RA_OF_ASC_NODE":"61.6955"},{"MEAN_MOTION_DOT":"-0.00002381","NORAD_CAT_ID":"50808","TLE_LINE1":"1 50808U 22001F   23063.69797802 -.00002381  00000-0 -13155-3 0  9992","PERIAPSIS":"538.554","DECAY_DATE":null,"PERIOD":"95.438","EPHEMERIS_TYPE":"0","MEAN_ANOMALY":"275.4575","SEMIMAJOR_AXIS":"6917.887","CENTER_NAME":"EARTH","REF_FRAME":"TEME","OBJECT_TYPE":"PAYLOAD","TIME_SYSTEM":"UTC","MEAN_MOTION_DDOT":"0.0000000000000","OBJECT_ID":"2022-001F","BSTAR":"-0.00013155000000","ELEMENT_SET_NO":"999","GP_ID":"227508876","COUNTRY_CODE":"US","ECCENTRICITY":"0.00017310","SITE":"AFETR","EPOCH":"2023-03-04T16:45:05.300928","OBJECT_NAME":"STARLINK-3355","MEAN_ELEMENT_THEORY":"SGP4","INCLINATION":"53.2180","REV_AT_EPOCH":"6433","TLE_LINE2":"2 50808  53.2180  61.6689 0001731  84.6615 275.4575 15.08837877 64335","CLASSIFICATION_TYPE":"U","RCS_SIZE":"LARGE","ARG_OF_PERICENTER":"84.6615","FILE":"3851350","MEAN_MOTION":"15.08837877","RA_OF_ASC_NODE":"61.6689","LAUNCH_DATE":"2022-01-06","APOAPSIS":"540.949"},{"OBJECT_NAME":"STARLINK-3232","ECCENTRICITY":"0.00019110","SITE":"AFETR","EPOCH":"2023-03-04T16:50:23.089632","GP_ID":"227509627","COUNTRY_CODE":"US","TLE_LINE2":"2 50809  53.2153  61.6506 0001911  73.7374 286.3828 15.08835299 64333","REV_AT_EPOCH":"6433","CLASSIFICATION_TYPE":"U","INCLINATION":"53.2153","MEAN_ELEMENT_THEORY":"SGP4","RA_OF_ASC_NODE":"61.6506","FILE":"3851350","MEAN_MOTION":"15.08835299","RCS_SIZE":"LARGE","ARG_OF_PERICENTER":"73.7374","APOAPSIS":"541.082","LAUNCH_DATE":"2022-01-06","PERIAPSIS":"538.438","TLE_LINE1":"1 50809U 22001G   23063.70165613  .00010280  00000-0  66311-3 0  9991","NORAD_CAT_ID":"50809","MEAN_MOTION_DOT":"0.00010280","MEAN_ANOMALY":"286.3828","DECAY_DATE":null,"PERIOD":"95.438","EPHEMERIS_TYPE":"0","TIME_SYSTEM":"UTC","OBJECT_TYPE":"PAYLOAD","REF_FRAME":"TEME","SEMIMAJOR_AXIS":"6917.895","CENTER_NAME":"EARTH","ELEMENT_SET_NO":"999","BSTAR":"0.00066311000000","OBJECT_ID":"2022-001G","MEAN_MOTION_DDOT":"0.0000000000000"},{"TIME_SYSTEM":"UTC","OBJECT_TYPE":"PAYLOAD","REF_FRAME":"TEME","CENTER_NAME":"EARTH","SEMIMAJOR_AXIS":"6917.857","ELEMENT_SET_NO":"999","BSTAR":"0.00047130000000","OBJECT_ID":"2022-001H","MEAN_MOTION_DDOT":"0.0000000000000","TLE_LINE1":"1 50810U 22001H   23063.69429549  .00007222  00000-0  47130-3 0  9992","PERIAPSIS":"538.419","NORAD_CAT_ID":"50810","MEAN_MOTION_DOT":"0.00007222","MEAN_ANOMALY":"284.7340","PERIOD":"95.437","DECAY_DATE":null,"EPHEMERIS_TYPE":"0","RA_OF_ASC_NODE":"61.6753","MEAN_MOTION":"15.08847625","FILE":"3851350","ARG_OF_PERICENTER":"75.3861","RCS_SIZE":"LARGE","APOAPSIS":"541.025","LAUNCH_DATE":"2022-01-06","OBJECT_NAME":"STARLINK-3348","EPOCH":"2023-03-04T16:39:47.130336","SITE":"AFETR","ECCENTRICITY":"0.00018830","COUNTRY_CODE":"US","GP_ID":"227510364","CLASSIFICATION_TYPE":"U","REV_AT_EPOCH":"6433","TLE_LINE2":"2 50810  53.2167  61.6753 0001883  75.3861 284.7340 15.08847625 64338","INCLINATION":"53.2167","MEAN_ELEMENT_THEORY":"SGP4"},{"APOAPSIS":"541.044","LAUNCH_DATE":"2022-01-06","FILE":"3851350","MEAN_MOTION":"15.08837707","RCS_SIZE":"LARGE","ARG_OF_PERICENTER":"85.7624","RA_OF_ASC_NODE":"61.7101","MEAN_ELEMENT_THEORY":"SGP4","REV_AT_EPOCH":"6433","TLE_LINE2":"2 50811  53.2162  61.7101 0001867  85.7624 274.3581 15.08837707 64338","CLASSIFICATION_TYPE":"U","INCLINATION":"53.2162","SITE":"AFETR","ECCENTRICITY":"0.00018670","EPOCH":"2023-03-04T16:29:11.000832","GP_ID":"227509126","COUNTRY_CODE":"US","OBJECT_NAME":"STARLINK-3347","OBJECT_ID":"2022-001J","MEAN_MOTION_DDOT":"0.0000000000000","ELEMENT_SET_NO":"999","BSTAR":"0.00043305000000","REF_FRAME":"TEME","SEMIMAJOR_AXIS":"6917.887","CENTER_NAME":"EARTH","TIME_SYSTEM":"UTC","OBJECT_TYPE":"PAYLOAD","MEAN_ANOMALY":"274.3581","PERIOD":"95.438","DECAY_DATE":null,"EPHEMERIS_TYPE":"0","MEAN_MOTION_DOT":"0.00006610","PERIAPSIS":"538.461","TLE_LINE1":"1 50811U 22001J   23063.68693288  .00006610  00000-0  43305-3 0  9995","NORAD_CAT_ID":"50811"},{"INCLINATION":"53.2184","CLASSIFICATION_TYPE":"U","TLE_LINE2":"2 50812  53.2184  61.5735 0001846  87.1430 272.9774 15.08843166 64336","REV_AT_EPOCH":"6433","MEAN_ELEMENT_THEORY":"SGP4","OBJECT_NAME":"STARLINK-3338","COUNTRY_CODE":"US","GP_ID":"227509375","EPOCH":"2023-03-04T17:12:57.573792","SITE":"AFETR","ECCENTRICITY":"0.00018460","LAUNCH_DATE":"2022-01-06","APOAPSIS":"541.013","RA_OF_ASC_NODE":"61.5735","ARG_OF_PERICENTER":"87.1430","RCS_SIZE":"LARGE","FILE":"3851350","MEAN_MOTION":"15.08843166","DECAY_DATE":null,"EPHEMERIS_TYPE":"0","PERIOD":"95.437","MEAN_ANOMALY":"272.9774","NORAD_CAT_ID":"50812","TLE_LINE1":"1 50812U 22001K   23063.71733303 -.00002656  00000-0 -14882-3 0  9999","PERIAPSIS":"538.459","MEAN_MOTION_DOT":"-0.00002656","BSTAR":"-0.00014882000000","ELEMENT_SET_NO":"999","MEAN_MOTION_DDOT":"0.0000000000000","OBJECT_ID":"2022-001K","OBJECT_TYPE":"PAYLOAD","TIME_SYSTEM":"UTC","CENTER_NAME":"EARTH","SEMIMAJOR_AXIS":"6917.871","REF_FRAME":"TEME"},{"MEAN_ELEMENT_THEORY":"SGP4","INCLINATION":"53.2147","CLASSIFICATION_TYPE":"U","REV_AT_EPOCH":"6433","TLE_LINE2":"2 50813  53.2147  61.6998 0001243  98.2547 261.8587 15.08841697 64337","COUNTRY_CODE":"US","GP_ID":"227510127","EPOCH":"2023-03-04T16:18:34.518816","SITE":"AFETR","ECCENTRICITY":"0.00012430","OBJECT_NAME":"STARLINK-3349","LAUNCH_DATE":"2022-01-06","APOAPSIS":"540.600","ARG_OF_PERICENTER":"98.2547","RCS_SIZE":"LARGE","FILE":"3851350","MEAN_MOTION":"15.08841697","RA_OF_ASC_NODE":"61.6998","DECAY_DATE":null,"PERIOD":"95.437","EPHEMERIS_TYPE":"0","MEAN_ANOMALY":"261.8587","MEAN_MOTION_DOT":"0.00008872","NORAD_CAT_ID":"50813","PERIAPSIS":"538.880","TLE_LINE1":"1 50813U 22001L   23063.67956619  .00008872  00000-0  57477-3 0  9993","MEAN_MOTION_DDOT":"0.0000000000000","OBJECT_ID":"2022-001L","BSTAR":"0.00057477000000","ELEMENT_SET_NO":"999","CENTER_NAME":"EARTH","SEMIMAJOR_AXIS":"6917.875","REF_FRAME":"TEME","OBJECT_TYPE":"PAYLOAD","TIME_SYSTEM":"UTC"}];
